     2.10           G: GLONASS NAV DATA                     RINEX VERSION / TYPE
teqc  2015Jun23                         20220620 01:25:43UTCPGM / RUN BY / DATE
Linux 2.4.21-27.ELsmp|Opteron|gcc -static|Linux x86_64|=+   COMMENT
  2022     6     9   -4.656612873077D-10                    CORR TO SYSTEM TIME
                                                            END OF HEADER
 4 22  6 10 20 15  0.0 1.458385959268D-04 1.818989403546D-12 7.200000000000D+04
    2.065061035156D+03-1.430425643921D-01 9.313225746155D-10 0.000000000000D+00
    2.212074755859D+04 1.716035842896D+00-1.862645149231D-09 6.000000000000D+00
    1.255854296875D+04-3.007147789001D+00-1.862645149231D-09 0.000000000000D+00
14 22  6 10 20 15  0.0 2.529006451368D-05 0.000000000000D+00 7.200000000000D+04
   -3.849130859375D+02-2.281093597412D+00-9.313225746155D-10 0.000000000000D+00
    1.328652685547D+04-1.915012359619D+00-1.862645149231D-09-7.000000000000D+00
    2.178911132812D+04 1.126236915588D+00-1.862645149231D-09 0.000000000000D+00
17 22  6 10 20 15  0.0 5.337903276086D-04 2.728484105319D-12 7.200000000000D+04
   -1.341179101562D+04-2.166364669800D+00-0.000000000000D+00 0.000000000000D+00
    1.320993554688D+04 9.508132934570D-01-9.313225746155D-10 4.000000000000D+00
   -1.723285009766D+04 2.411223411560D+00 1.862645149231D-09 0.000000000000D+00
18 22  6 10 20 15  0.0 1.198379322886D-04 9.094947017729D-13 7.362000000000D+04
    3.730972167969D+03-3.009587287903D+00 1.862645149231D-09 0.000000000000D+00
    9.756592285156D+03 1.063982963562D+00 0.000000000000D+00-3.000000000000D+00
   -2.326452587891D+04-3.179931640625D-02 1.862645149231D-09 0.000000000000D+00
24 22  6 10 20 45  0.0 9.805615991354D-05 1.818989403546D-12 7.380000000000D+04
   -2.327664892578D+04 6.978111267090D-01-3.725290298462D-09 0.000000000000D+00
    9.152205078125D+03-1.518545150757D-01-9.313225746155D-10 2.000000000000D+00
    5.055492187500D+03 3.492249488831D+00 9.313225746155D-10 0.000000000000D+00
15 22  6 10 20 45  0.0 9.549688547850D-05-0.000000000000D+00 7.380000000000D+04
    1.182129150391D+04-1.764312744141D+00 9.313225746155D-10 0.000000000000D+00
    1.625726464844D+04-1.231553077698D+00-9.313225746155D-10 0.000000000000D+00
    1.572980908203D+04 2.601700782776D+00-2.793967723846D-09 0.000000000000D+00
 2 22  6 10 20 45  0.0 5.209157243371D-04 0.000000000000D+00 7.380000000000D+04
   -1.062644140625D+04 1.906890869141D-01-0.000000000000D+00 0.000000000000D+00
    7.729331054688D+03-2.994491577148D+00-0.000000000000D+00-4.000000000000D+00
   -2.180441943359D+04-1.157412528992D+00 2.793967723846D-09 0.000000000000D+00
 3 22  6 10 20 45  0.0 5.821418017149D-05 0.000000000000D+00 7.380000000000D+04
   -5.753348144531D+03 1.984539031982D-01 0.000000000000D+00 0.000000000000D+00
    2.256286035156D+04-1.414634704590D+00-9.313225746155D-10 5.000000000000D+00
   -1.030638476562D+04-3.197457313538D+00 9.313225746155D-10 0.000000000000D+00
 4 22  6 10 20 45  0.0 1.458413898945D-04 1.818989403546D-12 7.380000000000D+04
    2.092375976562D+03 1.384677886963D-01 0.000000000000D+00 0.000000000000D+00
    2.452031787109D+04 9.241619110107D-01-1.862645149231D-09 6.000000000000D+00
    6.730573730469D+03-3.426432609558D+00-9.313225746155D-10 0.000000000000D+00
17 22  6 10 20 45  0.0 5.337968468666D-04 2.728484105319D-12 7.380000000000D+04
   -1.664038476562D+04-1.402981758118D+00-1.862645149231D-09 0.000000000000D+00
    1.495851953125D+04 9.487800598145D-01-9.313225746155D-10 4.000000000000D+00
   -1.228356835938D+04 3.052297592163D+00 1.862645149231D-09 0.000000000000D+00
18 22  6 10 20 45  0.0 1.198407262564D-04 9.094947017729D-13 7.380000000000D+04
   -1.460364746094D+03-2.712161064148D+00 9.313225746155D-10 0.000000000000D+00
    1.204775976562D+04 1.455739974976D+00-0.000000000000D+00-3.000000000000D+00
   -2.242093505859D+04 9.631776809692D-01 1.862645149231D-09 0.000000000000D+00
14 22  6 10 20 45  0.0 2.528727054596D-05 0.000000000000D+00 7.398000000000D+04
   -4.871705078125D+03-2.667478561401D+00-1.862645149231D-09 0.000000000000D+00
    1.004553808594D+04-1.650972366333D+00-9.313225746155D-10-7.000000000000D+00
    2.294945214844D+04 1.546363830566D-01-1.862645149231D-09 0.000000000000D+00
 5 22  6 10 20 45  0.0 9.440537542105D-05 9.094947017729D-13 7.458000000000D+04
    8.799472167969D+03-3.347396850586D-02 0.000000000000D+00 0.000000000000D+00
    1.303747167969D+04 2.750203132629D+00-9.313225746155D-10 1.000000000000D+00
    2.008924707031D+04-1.773227691650D+00-2.793967723846D-09 0.000000000000D+00
24 22  6 10 21 15  0.0 9.805988520384D-05 1.818989403546D-12 7.560000000000D+04
   -2.141019335938D+04 1.340502738953D+00-4.656612873077D-09 0.000000000000D+00
    8.387513183594D+03-7.217044830322D-01-9.313225746155D-10 2.000000000000D+00
    1.106515576172D+04 3.141850471497D+00 0.000000000000D+00 0.000000000000D+00
15 22  6 10 21 15  0.0 9.549688547850D-05 0.000000000000D+00 7.560000000000D+04
    8.031168457031D+03-2.423705101013D+00-0.000000000000D+00 0.000000000000D+00
    1.404324169922D+04-1.187072753906D+00-9.313225746155D-10 0.000000000000D+00
    1.974560449219D+04 1.831434249878D+00-2.793967723846D-09 0.000000000000D+00
 3 22  6 10 21 15  0.0 5.821418017149D-05 0.000000000000D+00 7.560000000000D+04
   -5.618783203125D+03-8.186626434326D-02 0.000000000000D+00 0.000000000000D+00
    1.932899316406D+04-2.148023605347D+00-9.313225746155D-10 5.000000000000D+00
   -1.558639062500D+04-2.630852699280D+00 1.862645149231D-09 0.000000000000D+00
 4 22  6 10 21 15  0.0 1.458451151848D-04 1.818989403546D-12 7.560000000000D+04
    2.424146484375D+03 1.891012191772D-01 0.000000000000D+00 0.000000000000D+00
    2.538688720703D+04 3.142356872559D-02-1.862645149231D-09 6.000000000000D+00
    3.825161132812D+02-3.581187248230D+00-0.000000000000D+00 0.000000000000D+00
 5 22  6 10 21 15  0.0 9.440723806620D-05 9.094947017729D-13 7.560000000000D+04
    9.082417968750D+03 3.217372894287D-01 0.000000000000D+00 0.000000000000D+00
    1.752243750000D+04 2.192236900330D+00-1.862645149231D-09 1.000000000000D+00
    1.616252490234D+04-2.561566352844D+00-2.793967723846D-09 0.000000000000D+00
17 22  6 10 21 15  0.0 5.338033661246D-04 2.728484105319D-12 7.560000000000D+04
   -1.843298632812D+04-5.905046463013D-01-2.793967723846D-09 0.000000000000D+00
    1.646545703125D+04 6.815090179443D-01-9.313225746155D-10 4.000000000000D+00
   -6.386357421875D+03 3.457685470581D+00 9.313225746155D-10 0.000000000000D+00
18 22  6 10 21 15  0.0 1.198425889015D-04 9.094947017729D-13 7.560000000000D+04
   -5.886956542969D+03-2.172865867615D+00 0.000000000000D+00 0.000000000000D+00
    1.487702001953D+04 1.648193359375D+00-9.313225746155D-10-3.000000000000D+00
   -1.984145703125D+04 1.884389877319D+00 1.862645149231D-09 0.000000000000D+00
24 22  6 10 21 45  0.0 9.806361049414D-05 1.818989403546D-12 7.740000000000D+04
   -1.859816503906D+04 1.739043235779D+00-4.656612873077D-09 0.000000000000D+00
    6.497435546875D+03-1.385256767273D+00-0.000000000000D+00 2.000000000000D+00
    1.622023339844D+04 2.548879623413D+00-0.000000000000D+00 0.000000000000D+00
15 22  6 10 21 45  0.0 9.549688547850D-05 0.000000000000D+00 7.740000000000D+04
    3.209035644531D+03-2.895524978638D+00-1.862645149231D-09 0.000000000000D+00
    1.211733154297D+04-9.213047027588D-01-9.313225746155D-10 0.000000000000D+00
    2.223814257812D+04 9.201459884644D-01-1.862645149231D-09 0.000000000000D+00
 3 22  6 10 21 45  0.0 5.821418017149D-05-0.000000000000D+00 7.740000000000D+04
   -6.143937500000D+03-5.209360122681D-01-0.000000000000D+00 0.000000000000D+00
    1.496621093750D+04-2.655541419983D+00-0.000000000000D+00 5.000000000000D+00
   -1.965424511719D+04-1.859447479248D+00 1.862645149231D-09 0.000000000000D+00
 4 22  6 10 21 45  0.0 1.458488404751D-04 1.818989403546D-12 7.740000000000D+04
    2.625116699219D+03-5.427360534668D-03 0.000000000000D+00 0.000000000000D+00
    2.464314550781D+04-8.452425003052D-01-1.862645149231D-09 6.000000000000D+00
   -5.995055175781D+03-3.458926200867D+00 0.000000000000D+00 0.000000000000D+00
 5 22  6 10 21 45  0.0 9.440816938877D-05 9.094947017729D-13 7.740000000000D+04
    9.840797363281D+03 4.832611083984D-01 0.000000000000D+00 0.000000000000D+00
    2.080797363281D+04 1.432706832886D+00-1.862645149231D-09 1.000000000000D+00
    1.098645507812D+04-3.152338027954D+00-1.862645149231D-09 0.000000000000D+00
17 22  6 10 21 45  0.0 5.338098853827D-04 2.728484105319D-12 7.740000000000D+04
   -1.880703222656D+04 1.544256210327D-01-3.725290298462D-09 0.000000000000D+00
    1.726303564453D+04 1.675319671631D-01-0.000000000000D+00 4.000000000000D+00
    3.595214843750D+00 3.596259117126D+00 9.313225746155D-10 0.000000000000D+00
18 22  6 10 21 45  0.0 1.198435202241D-04 9.094947017729D-13 7.740000000000D+04
   -9.193229980469D+03-1.485171318054D+00-9.313225746155D-10 0.000000000000D+00
    1.782278076172D+04 1.578000068665D+00-9.313225746155D-10-3.000000000000D+00
   -1.572458984375D+04 2.660214424133D+00 1.862645149231D-09 0.000000000000D+00
18 22  6 10 22 15  0.0 1.198453828692D-04 0.000000000000D+00 7.920000000000D+04
   -1.121271191406D+04-7.627534866333D-01-1.862645149231D-09 0.000000000000D+00
    2.038730126953D+04 1.225225448608D+00-0.000000000000D+00-3.000000000000D+00
   -1.038854003906D+04 3.230153083801D+00 1.862645149231D-09 0.000000000000D+00
 3 22  6 10 22 15  0.0 5.821418017149D-05 0.000000000000D+00 7.920000000000D+04
   -7.533065429688D+03-1.024381637573D+00-0.000000000000D+00 0.000000000000D+00
    9.941974121094D+03-2.876360893250D+00-0.000000000000D+00 5.000000000000D+00
   -2.219347021484D+04-9.435386657715D-01 2.793967723846D-09 0.000000000000D+00
 4 22  6 10 22 15  0.0 1.458516344428D-04 1.818989403546D-12 7.920000000000D+04
    2.275347656250D+03-4.140176773071D-01-0.000000000000D+00 0.000000000000D+00
    2.242249804688D+04-1.591826438904D+00-9.313225746155D-10 6.000000000000D+00
   -1.190838427734D+04-3.068649291992D+00 9.313225746155D-10 0.000000000000D+00
